{
  "type": "FeatureCollection",
  "features": [
    {
      "type": "Feature",
      "properties": {
        "norad_id": 66822,
        "name": "STARLINK-35958",
        "group": "last-30-days",
        "lat": -27.4834779514559,
        "lon": 147.45135770323162,
        "alt_km": 413.15021691118363,
        "timestamp": "2025-12-27T08:36:17.078243+00:00",
        "meta_object_name": "STARLINK-35958",
        "meta_object_id": "2025-280B",
        "meta_epoch": "2025-12-27T04:05:32.260128",
        "meta_mean_motion": 15.52559312,
        "meta_eccentricity": 0.0003353,
        "meta_inclination": 70.0002,
        "meta_ra_of_asc_node": 158.8881,
        "meta_arg_of_pericenter": 272.9886,
        "meta_mean_anomaly": 87.0917,
        "meta_ephemeris_type": 0,
        "meta_classification_type": "U",
        "meta_norad_cat_id": 66822,
        "meta_element_set_no": 999,
        "meta_rev_at_epoch": 517,
        "meta_bstar": 0.0020775,
        "meta_mean_motion_dot": 0.00129941,
        "meta_mean_motion_ddot": 0,
        "tle_line1": "1 66822U 25280B   25361.17051227  .00129941  00000+0  20775-2 0  9991",
        "tle_line2": "2 66822  70.0002 158.8881 0003353 272.9886  87.0917 15.52559312  5173"
      },
      "geometry": {
        "type": "Point",
        "coordinates": [
          147.45135770323162,
          -27.4834779514559
        ]
      }
    },
    {
      "type": "Feature",
      "properties": {
        "norad_id": 66823,
        "name": "STARLINK-35957",
        "group": "last-30-days",
        "lat": -25.70897079925153,
        "lon": 148.2709313929969,
        "alt_km": 413.0625927115698,
        "timestamp": "2025-12-27T08:36:17.078253+00:00",
        "meta_object_name": "STARLINK-35957",
        "meta_object_id": "2025-280C",
        "meta_epoch": "2025-12-27T04:05:02.658624",
        "meta_mean_motion": 15.52567218,
        "meta_eccentricity": 0.0003262,
        "meta_inclination": 70.0003,
        "meta_ra_of_asc_node": 158.8863,
        "meta_arg_of_pericenter": 273.4789,
        "meta_mean_anomaly": 86.6025,
        "meta_ephemeris_type": 0,
        "meta_classification_type": "U",
        "meta_norad_cat_id": 66823,
        "meta_element_set_no": 999,
        "meta_rev_at_epoch": 517,
        "meta_bstar": 0.0023303,
        "meta_mean_motion_dot": 0.00146113,
        "meta_mean_motion_ddot": 0,
        "tle_line1": "1 66823U 25280C   25361.17016966  .00146113  00000+0  23303-2 0  9993",
        "tle_line2": "2 66823  70.0003 158.8863 0003262 273.4789  86.6025 15.52567218  5171"
      },
      "geometry": {
        "type": "Point",
        "coordinates": [
          148.2709313929969,
          -25.70897079925153
        ]
      }
    },
    {
      "type": "Feature",
      "properties": {
        "norad_id": 66824,
        "name": "STARLINK-35896",
        "group": "last-30-days",
        "lat": -23.941625015002803,
        "lon": 149.06172073847156,
        "alt_km": 413.0479917636594,
        "timestamp": "2025-12-27T08:36:17.078263+00:00",
        "meta_object_name": "STARLINK-35896",
        "meta_object_id": "2025-280D",
        "meta_epoch": "2025-12-27T04:04:32.966400",
        "meta_mean_motion": 15.52550684,
        "meta_eccentricity": 0.0003085,
        "meta_inclination": 70.0003,
        "meta_ra_of_asc_node": 158.8851,
        "meta_arg_of_pericenter": 275.0326,
        "meta_mean_anomaly": 85.0509,
        "meta_ephemeris_type": 0,
        "meta_classification_type": "U",
        "meta_norad_cat_id": 66824,
        "meta_element_set_no": 999,
        "meta_rev_at_epoch": 517,
        "meta_bstar": 0.002358,
        "meta_mean_motion_dot": 0.00147794,
        "meta_mean_motion_ddot": 0,
        "tle_line1": "1 66824U 25280D   25361.16982600  .00147794  00000+0  23580-2 0  9993",
        "tle_line2": "2 66824  70.0003 158.8851 0003085 275.0326  85.0509 15.52550684  5176"
      },
      "geometry": {
        "type": "Point",
        "coordinates": [
          149.06172073847156,
          -23.941625015002803
        ]
      }
    },
    {
      "type": "Feature",
      "properties": {
        "norad_id": 66825,
        "name": "STARLINK-35476",
        "group": "last-30-days",
        "lat": -22.155928964193524,
        "lon": 149.83641666241073,
        "alt_km": 412.9301549013471,
        "timestamp": "2025-12-27T08:36:17.078273+00:00",
        "meta_object_name": "STARLINK-35476",
        "meta_object_id": "2025-280E",
        "meta_epoch": "2025-12-27T04:04:03.266400",
        "meta_mean_motion": 15.5255596,
        "meta_eccentricity": 0.0003267,
        "meta_inclination": 70.0003,
        "meta_ra_of_asc_node": 158.8831,
        "meta_arg_of_pericenter": 273.9441,
        "meta_mean_anomaly": 86.1373,
        "meta_ephemeris_type": 0,
        "meta_classification_type": "U",
        "meta_norad_cat_id": 66825,
        "meta_element_set_no": 999,
        "meta_rev_at_epoch": 517,
        "meta_bstar": 0.0023693,
        "meta_mean_motion_dot": 0.00148546,
        "meta_mean_motion_ddot": 0,
        "tle_line1": "1 66825U 25280E   25361.16948225  .00148546  00000+0  23693-2 0  9990",
        "tle_line2": "2 66825  70.0003 158.8831 0003267 273.9441  86.1373 15.52555960  5175"
      },
      "geometry": {
        "type": "Point",
        "coordinates": [
          149.83641666241073,
          -22.155928964193524
        ]
      }
    },
    {
      "type": "Feature",
      "properties": {
        "norad_id": 66826,
        "name": "STARLINK-35898",
        "group": "last-30-days",
        "lat": -20.402871725594473,
        "lon": 150.5772333971422,
        "alt_km": 412.8480560796643,
        "timestamp": "2025-12-27T08:36:17.078282+00:00",
        "meta_object_name": "STARLINK-35898",
        "meta_object_id": "2025-280F",
        "meta_epoch": "2025-12-27T04:03:34.756128",
        "meta_mean_motion": 15.52614823,
        "meta_eccentricity": 0.0002807,
        "meta_inclination": 70.0003,
        "meta_ra_of_asc_node": 158.8819,
        "meta_arg_of_pericenter": 272.483,
        "meta_mean_anomaly": 87.6035,
        "meta_ephemeris_type": 0,
        "meta_classification_type": "U",
        "meta_norad_cat_id": 66826,
        "meta_element_set_no": 999,
        "meta_rev_at_epoch": 517,
        "meta_bstar": 0.0024706,
        "meta_mean_motion_dot": 0.00155357,
        "meta_mean_motion_ddot": 0,
        "tle_line1": "1 66826U 25280F   25361.16915227  .00155357  00000+0  24706-2 0  9991",
        "tle_line2": "2 66826  70.0003 158.8819 0002807 272.4830  87.6035 15.52614823  5172"
      },
      "geometry": {
        "type": "Point",
        "coordinates": [
          150.5772333971422,
          -20.402871725594473
        ]
      }
    },
    {
      "type": "Feature",
      "properties": {
        "norad_id": 66827,
        "name": "STARLINK-35959",
        "group": "last-30-days",
        "lat": -18.589979198281803,
        "lon": 151.32445217375565,
        "alt_km": 412.51975997403315,
        "timestamp": "2025-12-27T08:36:17.078292+00:00",
        "meta_object_name": "STARLINK-35959",
        "meta_object_id": "2025-280G",
        "meta_epoch": "2025-12-27T04:03:04.396032",
        "meta_mean_motion": 15.52592671,
        "meta_eccentricity": 0.00032,
        "meta_inclination": 70.0004,
        "meta_ra_of_asc_node": 158.8806,
        "meta_arg_of_pericenter": 278.2881,
        "meta_mean_anomaly": 81.7943,
        "meta_ephemeris_type": 0,
        "meta_classification_type": "U",
        "meta_norad_cat_id": 66827,
        "meta_element_set_no": 999,
        "meta_rev_at_epoch": 517,
        "meta_bstar": 0.0024005,
        "meta_mean_motion_dot": 0.00150745,
        "meta_mean_motion_ddot": 0,
        "tle_line1": "1 66827U 25280G   25361.16880088  .00150745  00000+0  24005-2 0  9996",
        "tle_line2": "2 66827  70.0004 158.8806 0003200 278.2881  81.7943 15.52592671  5177"
      },
      "geometry": {
        "type": "Point",
        "coordinates": [
          151.32445217375565,
          -18.589979198281803
        ]
      }
    },
    {
      "type": "Feature",
      "properties": {
        "norad_id": 66828,
        "name": "STARLINK-35982",
        "group": "last-30-days",
        "lat": -15.06507533825392,
        "lon": 152.73058445548287,
        "alt_km": 412.57769387153985,
        "timestamp": "2025-12-27T08:36:17.078302+00:00",
        "meta_object_name": "STARLINK-35982",
        "meta_object_id": "2025-280H",
        "meta_epoch": "2025-12-27T04:02:05.439264",
        "meta_mean_motion": 15.52538527,
        "meta_eccentricity": 0.0003198,
        "meta_inclination": 70.0003,
        "meta_ra_of_asc_node": 158.8781,
        "meta_arg_of_pericenter": 275.6823,
        "meta_mean_anomaly": 84.3999,
        "meta_ephemeris_type": 0,
        "meta_classification_type": "U",
        "meta_norad_cat_id": 66828,
        "meta_element_set_no": 999,
        "meta_rev_at_epoch": 517,
        "meta_bstar": 0.0022657,
        "meta_mean_motion_dot": 0.00141831,
        "meta_mean_motion_ddot": 0,
        "tle_line1": "1 66828U 25280H   25361.16811851  .00141831  00000+0  22657-2 0  9996",
        "tle_line2": "2 66828  70.0003 158.8781 0003198 275.6823  84.3999 15.52538527  5172"
      },
      "geometry": {
        "type": "Point",
        "coordinates": [
          152.73058445548287,
          -15.06507533825392
        ]
      }
    }
  ]
}